{
  "type": "FeatureCollection",
  "name": "ehime liquefaction risk (test fixture)",
  "features": [
    {
      "type": "Feature",
      "properties": { "rank": 3, "name": "松山平野 極大" },
      "geometry": { "type": "Polygon", "coordinates": [[
        [132.74, 33.82], [132.78, 33.82], [132.78, 33.86], [132.74, 33.86], [132.74, 33.82]
      ]]}
    },
    {
      "type": "Feature",
      "properties": { "rank": 2, "name": "今治平野 大" },
      "geometry": { "type": "Polygon", "coordinates": [[
        [132.95, 34.05], [132.99, 34.05], [132.99, 34.08], [132.95, 34.08], [132.95, 34.05]
      ]]}
    },
    {
      "type": "Feature",
      "properties": { "rank": 1, "name": "新居浜平野 中" },
      "geometry": { "type": "Polygon", "coordinates": [[
        [133.27, 33.95], [133.29, 33.95], [133.29, 33.97], [133.27, 33.97], [133.27, 33.95]
      ]]}
    }
  ]
}
